CCSDS_OMM_VERS = 2.0
CREATION_DATE  = 
ORIGINATOR     = 

OBJECT_NAME    = STARLINK-35491
OBJECT_ID      = 2025-236AD
CENTER_NAME    = EARTH
REF_FRAME      = TEME
TIME_SYSTEM    = UTC
MEAN_ELEMENT_THEORY = SGP/SGP4

EPOCH          = 2025-11-16T20:00:01.999008
MEAN_MOTION    = 15.49334631
ECCENTRICITY   = .0001436
INCLINATION    = 53.1589
RA_OF_ASC_NODE = 269.5669
ARG_OF_PERICENTER = 93.0816
MEAN_ANOMALY   = 309.2817

EPHEMERIS_TYPE = 0
CLASSIFICATION_TYPE = U
NORAD_CAT_ID   = 66113
ELEMENT_SET_NO = 999
REV_AT_EPOCH   = 571
BSTAR          = -.10062E-2
MEAN_MOTION_DOT = -.56059E-3
MEAN_MOTION_DDOT = 0

CCSDS_OMM_VERS = 2.0
CREATION_DATE  = 
ORIGINATOR     = 

OBJECT_NAME    = STARLINK-35496
OBJECT_ID      = 2025-237A
CENTER_NAME    = EARTH
REF_FRAME      = TEME
TIME_SYSTEM    = UTC
MEAN_ELEMENT_THEORY = SGP/SGP4

EPOCH          = 2025-11-16T17:28:02.719200
MEAN_MOTION    = 15.49374065
ECCENTRICITY   = .0001256
INCLINATION    = 53.1596
RA_OF_ASC_NODE = 210.1334
ARG_OF_PERICENTER = 111.1932
MEAN_ANOMALY   = 248.9212

EPHEMERIS_TYPE = 0
CLASSIFICATION_TYPE = U
NORAD_CAT_ID   = 66114
ELEMENT_SET_NO = 999
REV_AT_EPOCH   = 523
BSTAR          = .15301E-2
MEAN_MOTION_DOT = .85788E-3
MEAN_MOTION_DDOT = 0

CCSDS_OMM_VERS = 2.0
CREATION_DATE  = 
ORIGINATOR     = 

OBJECT_NAME    = STARLINK-35428
OBJECT_ID      = 2025-237B
CENTER_NAME    = EARTH
REF_FRAME      = TEME
TIME_SYSTEM    = UTC
MEAN_ELEMENT_THEORY = SGP/SGP4

EPOCH          = 2025-11-16T20:00:01.999008
MEAN_MOTION    = 15.39573760
ECCENTRICITY   = .0000923
INCLINATION    = 53.1598
RA_OF_ASC_NODE = 209.6989
ARG_OF_PERICENTER = 98.1828
MEAN_ANOMALY   = 95.3752

EPHEMERIS_TYPE = 0
CLASSIFICATION_TYPE = U
NORAD_CAT_ID   = 66115
ELEMENT_SET_NO = 999
REV_AT_EPOCH   = 531
BSTAR          = .81278E-3
MEAN_MOTION_DOT = .32199E-3
MEAN_MOTION_DDOT = 0

CCSDS_OMM_VERS = 2.0
CREATION_DATE  = 
ORIGINATOR     = 

OBJECT_NAME    = STARLINK-35573
OBJECT_ID      = 2025-237C
CENTER_NAME    = EARTH
REF_FRAME      = TEME
TIME_SYSTEM    = UTC
MEAN_ELEMENT_THEORY = SGP/SGP4

EPOCH          = 2025-11-16T17:27:03.365856
MEAN_MOTION    = 15.49432198
ECCENTRICITY   = .0001372
INCLINATION    = 53.1596
RA_OF_ASC_NODE = 210.1291
ARG_OF_PERICENTER = 127.7425
MEAN_ANOMALY   = 232.3708

EPHEMERIS_TYPE = 0
CLASSIFICATION_TYPE = U
NORAD_CAT_ID   = 66116
ELEMENT_SET_NO = 999
REV_AT_EPOCH   = 523
BSTAR          = .29181E-2
MEAN_MOTION_DOT = .166059E-2
MEAN_MOTION_DDOT = 0

CCSDS_OMM_VERS = 2.0
CREATION_DATE  = 
ORIGINATOR     = 

OBJECT_NAME    = STARLINK-35572
OBJECT_ID      = 2025-237D
CENTER_NAME    = EARTH
REF_FRAME      = TEME
TIME_SYSTEM    = UTC
MEAN_ELEMENT_THEORY = SGP/SGP4

EPOCH          = 2025-11-16T20:00:01.999008
MEAN_MOTION    = 15.42178921
ECCENTRICITY   = .0001356
INCLINATION    = 53.1593
RA_OF_ASC_NODE = 209.6525
ARG_OF_PERICENTER = 83.9882
MEAN_ANOMALY   = 132.6476

EPHEMERIS_TYPE = 0
CLASSIFICATION_TYPE = U
NORAD_CAT_ID   = 66117
ELEMENT_SET_NO = 999
REV_AT_EPOCH   = 531
BSTAR          = -.50495E-1
MEAN_MOTION_DOT = -.1964024E-1
MEAN_MOTION_DDOT = 0

CCSDS_OMM_VERS = 2.0
CREATION_DATE  = 
ORIGINATOR     = 

OBJECT_NAME    = STARLINK-35468
OBJECT_ID      = 2025-237E
CENTER_NAME    = EARTH
REF_FRAME      = TEME
TIME_SYSTEM    = UTC
MEAN_ELEMENT_THEORY = SGP/SGP4

EPOCH          = 2025-11-16T20:00:01.999008
MEAN_MOTION    = 15.39598971
ECCENTRICITY   = .0000911
INCLINATION    = 53.1598
RA_OF_ASC_NODE = 209.7499
ARG_OF_PERICENTER = 108.6168
MEAN_ANOMALY   = 59.1530

EPHEMERIS_TYPE = 0
CLASSIFICATION_TYPE = U
NORAD_CAT_ID   = 66118
ELEMENT_SET_NO = 999
REV_AT_EPOCH   = 531
BSTAR          = .52158E-3
MEAN_MOTION_DOT = .20505E-3
MEAN_MOTION_DDOT = 0

CCSDS_OMM_VERS = 2.0
CREATION_DATE  = 
ORIGINATOR     = 

OBJECT_NAME    = STARLINK-35547
OBJECT_ID      = 2025-237F
CENTER_NAME    = EARTH
REF_FRAME      = TEME
TIME_SYSTEM    = UTC
MEAN_ELEMENT_THEORY = SGP/SGP4

EPOCH          = 2025-11-16T17:24:34.903008
MEAN_MOTION    = 15.49333295
ECCENTRICITY   = .0000773
INCLINATION    = 53.1599
RA_OF_ASC_NODE = 210.1164
ARG_OF_PERICENTER = 95.7618
MEAN_ANOMALY   = 264.3479

EPHEMERIS_TYPE = 0
CLASSIFICATION_TYPE = U
NORAD_CAT_ID   = 66119
ELEMENT_SET_NO = 999
REV_AT_EPOCH   = 523
BSTAR          = .18855E-2
MEAN_MOTION_DOT = .105937E-2
MEAN_MOTION_DDOT = 0

CCSDS_OMM_VERS = 2.0
CREATION_DATE  = 
ORIGINATOR     = 

OBJECT_NAME    = STARLINK-35553
OBJECT_ID      = 2025-237G
CENTER_NAME    = EARTH
REF_FRAME      = TEME
TIME_SYSTEM    = UTC
MEAN_ELEMENT_THEORY = SGP/SGP4

EPOCH          = 2025-11-16T20:00:01.999008
MEAN_MOTION    = 15.45275016
ECCENTRICITY   = .0001466
INCLINATION    = 53.1600
RA_OF_ASC_NODE = 209.6217
ARG_OF_PERICENTER = 93.0522
MEAN_ANOMALY   = 139.2020

EPHEMERIS_TYPE = 0
CLASSIFICATION_TYPE = U
NORAD_CAT_ID   = 66120
ELEMENT_SET_NO = 999
REV_AT_EPOCH   = 531
BSTAR          = -.47011E-1
MEAN_MOTION_DOT = -.2025008E-1
MEAN_MOTION_DDOT = 0

CCSDS_OMM_VERS = 2.0
CREATION_DATE  = 
ORIGINATOR     = 

OBJECT_NAME    = STARLINK-35631
OBJECT_ID      = 2025-237H
CENTER_NAME    = EARTH
REF_FRAME      = TEME
TIME_SYSTEM    = UTC
MEAN_ELEMENT_THEORY = SGP/SGP4

EPOCH          = 2025-11-16T17:25:04.613376
MEAN_MOTION    = 15.49348480
ECCENTRICITY   = .0001445
INCLINATION    = 53.1598
RA_OF_ASC_NODE = 210.1181
ARG_OF_PERICENTER = 107.5723
MEAN_ANOMALY   = 252.5444

EPHEMERIS_TYPE = 0
CLASSIFICATION_TYPE = U
NORAD_CAT_ID   = 66121
ELEMENT_SET_NO = 999
REV_AT_EPOCH   = 523
BSTAR          = .21738E-2
MEAN_MOTION_DOT = .122531E-2
MEAN_MOTION_DDOT = 0

CCSDS_OMM_VERS = 2.0
CREATION_DATE  = 
ORIGINATOR     = 

OBJECT_NAME    = STARLINK-35653
OBJECT_ID      = 2025-237J
CENTER_NAME    = EARTH
REF_FRAME      = TEME
TIME_SYSTEM    = UTC
MEAN_ELEMENT_THEORY = SGP/SGP4

EPOCH          = 2025-11-16T17:24:06.987168
MEAN_MOTION    = 15.49409501
ECCENTRICITY   = .0001559
INCLINATION    = 53.1598
RA_OF_ASC_NODE = 210.1156
ARG_OF_PERICENTER = 107.8694
MEAN_ANOMALY   = 252.2485

EPHEMERIS_TYPE = 0
CLASSIFICATION_TYPE = U
NORAD_CAT_ID   = 66122
ELEMENT_SET_NO = 999
REV_AT_EPOCH   = 523
BSTAR          = .31796E-2
MEAN_MOTION_DOT = .181187E-2
MEAN_MOTION_DDOT = 0

CCSDS_OMM_VERS = 2.0
CREATION_DATE  = 
ORIGINATOR     = 

OBJECT_NAME    = STARLINK-35628
OBJECT_ID      = 2025-237K
CENTER_NAME    = EARTH
REF_FRAME      = TEME
TIME_SYSTEM    = UTC
MEAN_ELEMENT_THEORY = SGP/SGP4

EPOCH          = 2025-11-16T17:23:35.642112
MEAN_MOTION    = 15.49333400
ECCENTRICITY   = .0001469
INCLINATION    = 53.1593
RA_OF_ASC_NODE = 210.1122
ARG_OF_PERICENTER = 103.8659
MEAN_ANOMALY   = 256.2513

EPHEMERIS_TYPE = 0
CLASSIFICATION_TYPE = U
NORAD_CAT_ID   = 66123
ELEMENT_SET_NO = 999
REV_AT_EPOCH   = 523
BSTAR          = .15661E-2
MEAN_MOTION_DOT = .87713E-3
MEAN_MOTION_DDOT = 0

CCSDS_OMM_VERS = 2.0
CREATION_DATE  = 
ORIGINATOR     = 

OBJECT_NAME    = STARLINK-35645
OBJECT_ID      = 2025-237L
CENTER_NAME    = EARTH
REF_FRAME      = TEME
TIME_SYSTEM    = UTC
MEAN_ELEMENT_THEORY = SGP/SGP4

EPOCH          = 2025-11-16T17:23:05.669088
MEAN_MOTION    = 15.49317705
ECCENTRICITY   = .0000799
INCLINATION    = 53.1599
RA_OF_ASC_NODE = 210.1105
ARG_OF_PERICENTER = 93.7759
MEAN_ANOMALY   = 266.3341

EPHEMERIS_TYPE = 0
CLASSIFICATION_TYPE = U
NORAD_CAT_ID   = 66124
ELEMENT_SET_NO = 999
REV_AT_EPOCH   = 523
BSTAR          = .15735E-2
MEAN_MOTION_DOT = .88081E-3
MEAN_MOTION_DDOT = 0

