STARLINK-35491          
1 66113U 25236AD  25320.83335647 -.00056059  00000+0 -10062-2 0  9993
2 66113  53.1589 269.5669 0001436  93.0816 309.2817 15.49334631  5716
STARLINK-35496          
1 66114U 25237A   25320.72780925  .00085788  00000+0  15301-2 0  9996
2 66114  53.1596 210.1334 0001256 111.1932 248.9212 15.49374065  5237
STARLINK-35428          
1 66115U 25237B   25320.83335647  .00032199  00000+0  81278-3 0  9991
2 66115  53.1598 209.6989 0000923  98.1828  95.3752 15.39573760  5311
STARLINK-35573          
1 66116U 25237C   25320.72712229  .00166059  00000+0  29181-2 0  9992
2 66116  53.1596 210.1291 0001372 127.7425 232.3708 15.49432198  5239
STARLINK-35572          
1 66117U 25237D   25320.83335647 -.01964024  00000+0 -50495-1 0  9992
2 66117  53.1593 209.6525 0001356  83.9882 132.6476 15.42178921  5319
STARLINK-35468          
1 66118U 25237E   25320.83335647  .00020505  00000+0  52158-3 0  9997
2 66118  53.1598 209.7499 0000911 108.6168  59.1530 15.39598971  5315
STARLINK-35547          
1 66119U 25237F   25320.72540397  .00105937  00000+0  18855-2 0  9994
2 66119  53.1599 210.1164 0000773  95.7618 264.3479 15.49333295  5234
STARLINK-35553          
1 66120U 25237G   25320.83335647 -.02025008  00000+0 -47011-1 0  9997
2 66120  53.1600 209.6217 0001466  93.0522 139.2020 15.45275016  5319
STARLINK-35631          
1 66121U 25237H   25320.72574784  .00122531  00000+0  21738-2 0  9997
2 66121  53.1598 210.1181 0001445 107.5723 252.5444 15.49348480  5234
STARLINK-35653          
1 66122U 25237J   25320.72508087  .00181187  00000+0  31796-2 0  9998
2 66122  53.1598 210.1156 0001559 107.8694 252.2485 15.49409501  5237
STARLINK-35628          
1 66123U 25237K   25320.72471808  .00087713  00000+0  15661-2 0  9992
2 66123  53.1593 210.1122 0001469 103.8659 256.2513 15.49333400  5233
STARLINK-35645          
1 66124U 25237L   25320.72437117  .00088081  00000+0  15735-2 0  9999
2 66124  53.1599 210.1105 0000799  93.7759 266.3341 15.49317705  5235
